{"type": "FeatureCollection", "features": [ {"type": "Feature", "properties": {"norad_id": 31078, "name": "FENGYUN 1C DEB", "group": "fengyun-1c-debris", "lat": 51.97527780842733, "lon": 32.383797688248585, "alt_km": 834.6630895751559, "timestamp": "2025-12-09T11:33:55.080257+00:00", "meta": {"OBJECT_NAME": "FENGYUN 1C DEB", "OBJECT_ID": "1999-025BFY", "EPOCH": "2025-12-05T09:39:35.353728", "MEAN_MOTION": 14.22045821, "ECCENTRICITY": 0.01168752, "INCLINATION": 98.8694, "RA_OF_ASC_NODE": 39.8, "ARG_OF_PERICENTER": 169.8882, "MEAN_ANOMALY": 252.0219, "EPHEMERIS_TYPE": 0, "CLASSIFICATION_TYPE": "U", "NORAD_CAT_ID": 31078, "ELEMENT_SET_NO": 999, "REV_AT_EPOCH": 96788, "BSTAR": 0.0010409368, "MEAN_MOTION_DOT": 2.424e-05, "MEAN_MOTION_DDOT": 0}, "tle": {"line1": "1 31078U 99025BFY 25339.40249252  .00002424  00000+0  10409-2 0  9991", "line2": "2 31078  98.8694  39.8000 0116875 169.8882 252.0219 14.22045821967883"}}, "geometry": {"type": "Point", "coordinates": [32.383797688248585, 51.97527780842733]}}, {"type": "Feature", "properties": {"norad_id": 31081, "name": "FENGYUN 1C DEB", "group": "fengyun-1c-debris", "lat": 13.819087361828695, "lon": -2.1574940714444635, "alt_km": 896.636793945816, "timestamp": "2025-12-09T11:33:55.080267+00:00", "meta": {"OBJECT_NAME": "FENGYUN 1C DEB", "OBJECT_ID": "1999-025BGB", "EPOCH": "2025-12-08T19:16:19.715808", "MEAN_MOTION": 14.06296788, "ECCENTRICITY": 0.00472929, "INCLINATION": 98.7706, "RA_OF_ASC_NODE": 359.3611, "ARG_OF_PERICENTER": 242.2472, "MEAN_ANOMALY": 296.4126, "EPHEMERIS_TYPE": 0, "CLASSIFICATION_TYPE": "U", "NORAD_CAT_ID": 31081, "ELEMENT_SET_NO": 999, "REV_AT_EPOCH": 96405, "BSTAR": 0.00022415728, "MEAN_MOTION_DOT": 3.3e-06, "MEAN_MOTION_DDOT": 0}, "tle": {"line1": "1 31081U 99025BGB 25342.80300597  .00000330  00000+0  22416-3 0  9999", "line2": "2 31081  98.7706 359.3611 0047292 242.2472 296.4126 14.06296788964052"}}, "geometry": {"type": "Point", "coordinates": [-2.1574940714444635, 13.819087361828695]}}, {"type": "Feature", "properties": {"norad_id": 31083, "name": "FENGYUN 1C DEB", "group": "fengyun-1c-debris", "lat": 47.34765426932736, "lon": -69.71461700493226, "alt_km": 704.7138927003034, "timestamp": "2025-12-09T11:33:55.080277+00:00", "meta": {"OBJECT_NAME": "FENGYUN 1C DEB", "OBJECT_ID": "1999-025BGD", "EPOCH": "2025-12-09T01:21:25.958016", "MEAN_MOTION": 14.61869524, "ECCENTRICITY": 0.0030962, "INCLINATION": 98.6465, "RA_OF_ASC_NODE": 100.3332, "ARG_OF_PERICENTER": 317.0838, "MEAN_ANOMALY": 97.618, "EPHEMERIS_TYPE": 0, "CLASSIFICATION_TYPE": "U", "NORAD_CAT_ID": 31083, "ELEMENT_SET_NO": 999, "REV_AT_EPOCH": 97656, "BSTAR": 0.0033295, "MEAN_MOTION_DOT": 0.00016744, "MEAN_MOTION_DDOT": 0}, "tle": {"line1": "1 31083U 99025BGD 25343.05655044  .00016744  00000+0  33295-2 0  9991", "line2": "2 31083  98.6465 100.3332 0030962 317.0838  97.6180 14.61869524976567"}}, "geometry": {"type": "Point", "coordinates": [-69.71461700493226, 47.34765426932736]}}, {"type": "Feature", "properties": {"norad_id": 31085, "name": "FENGYUN 1C DEB", "group": "fengyun-1c-debris", "lat": -79.92364162158512, "lon": -58.7508080728006, "alt_km": 830.9312642345367, "timestamp": "2025-12-09T11:33:55.080287+00:00", "meta": {"OBJECT_NAME": "FENGYUN 1C DEB", "OBJECT_ID": "1999-025BGF", "EPOCH": "2025-12-08T19:30:55.256256", "MEAN_MOTION": 14.30306251, "ECCENTRICITY": 0.00874885, "INCLINATION": 98.9846, "RA_OF_ASC_NODE": 183.472, "ARG_OF_PERICENTER": 29.4311, "MEAN_ANOMALY": 35.3324, "EPHEMERIS_TYPE": 0, "CLASSIFICATION_TYPE": "U", "NORAD_CAT_ID": 31085, "ELEMENT_SET_NO": 999, "REV_AT_EPOCH": 97660, "BSTAR": 0.00018881299, "MEAN_MOTION_DOT": 4.64e-06, "MEAN_MOTION_DDOT": 0}, "tle": {"line1": "1 31085U 99025BGF 25342.81313954  .00000464  00000+0  18881-3 0  9994", "line2": "2 31085  98.9846 183.4720 0087488  29.4311  35.3324 14.30306251976606"}}, "geometry": {"type": "Point", "coordinates": [-58.7508080728006, -79.92364162158512]}}, {"type": "Feature", "properties": {"norad_id": 31087, "name": "FENGYUN 1C DEB", "group": "fengyun-1c-debris", "lat": 53.339363413683, "lon": -7.070114542186515, "alt_km": 733.0460132811022, "timestamp": "2025-12-09T11:33:55.080297+00:00", "meta": {"OBJECT_NAME": "FENGYUN 1C DEB", "OBJECT_ID": "1999-025BGH", "EPOCH": "2025-12-08T23:56:24.203904", "MEAN_MOTION": 14.60248615, "ECCENTRICITY": 0.0172192, "INCLINATION": 98.1004, "RA_OF_ASC_NODE": 3.4877, "ARG_OF_PERICENTER": 302.744, "MEAN_ANOMALY": 84.7668, "EPHEMERIS_TYPE": 0, "CLASSIFICATION_TYPE": "U", "NORAD_CAT_ID": 31087, "ELEMENT_SET_NO": 999, "REV_AT_EPOCH": 98715, "BSTAR": 0.0010239, "MEAN_MOTION_DOT": 6.035e-05, "MEAN_MOTION_DDOT": 0}, "tle": {"line1": "1 31087U 99025BGH 25342.99750236  .00006035  00000+0  10239-2 0  9991", "line2": "2 31087  98.1004   3.4877 0172192 302.7440  84.7668 14.60248615987150"}}, "geometry": {"type": "Point", "coordinates": [-7.070114542186515, 53.339363413683]}}, {"type": "Feature", "properties": {"norad_id": 31088, "name": "FENGYUN 1C DEB", "group": "fengyun-1c-debris", "lat": -33.711730711718026, "lon": 49.76417479606566, "alt_km": 807.7158503084474, "timestamp": "2025-12-09T11:33:55.080307+00:00", "meta": {"OBJECT_NAME": "FENGYUN 1C DEB", "OBJECT_ID": "1999-025BGJ", "EPOCH": "2025-12-09T03:34:46.788096", "MEAN_MOTION": 14.28652873, "ECCENTRICITY": 0.0028825, "INCLINATION": 99.4119, "RA_OF_ASC_NODE": 43.0516, "ARG_OF_PERICENTER": 72.0462, "MEAN_ANOMALY": 343.784, "EPHEMERIS_TYPE": 0, "CLASSIFICATION_TYPE": "U", "NORAD_CAT_ID": 31088, "ELEMENT_SET_NO": 999, "REV_AT_EPOCH": 96498, "BSTAR": 0.0019051, "MEAN_MOTION_DOT": 4.761e-05, "MEAN_MOTION_DDOT": 0}, "tle": {"line1": "1 31088U 99025BGJ 25343.14915264  .00004761  00000+0  19051-2 0  9999", "line2": "2 31088  99.4119  43.0516 0028825  72.0462 343.7840 14.28652873964981"}}, "geometry": {"type": "Point", "coordinates": [49.76417479606566, -33.711730711718026]}}, {"type": "Feature", "properties": {"norad_id": 31089, "name": "FENGYUN 1C DEB", "group": "fengyun-1c-debris", "lat": 7.259252627764625, "lon": -53.18393163060516, "alt_km": 833.8237245913742, "timestamp": "2025-12-09T11:33:55.080318+00:00", "meta": {"OBJECT_NAME": "FENGYUN 1C DEB", "OBJECT_ID": "1999-025BGK", "EPOCH": "2025-12-07T21:25:32.147616", "MEAN_MOTION": 13.88305057, "ECCENTRICITY": 0.02058957, "INCLINATION": 98.9488, "RA_OF_ASC_NODE": 124.1407, "ARG_OF_PERICENTER": 224.7678, "MEAN_ANOMALY": 291.3696, "EPHEMERIS_TYPE": 0, "CLASSIFICATION_TYPE": "U", "NORAD_CAT_ID": 31089, "ELEMENT_SET_NO": 999, "REV_AT_EPOCH": 67992, "BSTAR": 0.0012224374, "MEAN_MOTION_DOT": 1.69e-05, "MEAN_MOTION_DDOT": 0}, "tle": {"line1": "1 31089U 99025BGK 25341.89273319  .00001690  00000+0  12224-2 0  9991", "line2": "2 31089  98.9488 124.1407 0205895 224.7678 291.3696 13.88305057679922"}}, "geometry": {"type": "Point", "coordinates": [-53.18393163060516, 7.259252627764625]}}, {"type": "Feature", "properties": {"norad_id": 31090, "name": "FENGYUN 1C DEB", "group": "fengyun-1c-debris", "lat": -6.858063782717825, "lon": 87.91451707512813, "alt_km": 505.0401559110087, "timestamp": "2025-12-09T11:33:55.080339+00:00", "meta": {"OBJECT_NAME": "FENGYUN 1C DEB", "OBJECT_ID": "1999-025BGL", "EPOCH": "2025-12-08T05:49:34.030272", "MEAN_MOTION": 15.32633337, "ECCENTRICITY": 0.00564213, "INCLINATION": 98.9833, "RA_OF_ASC_NODE": 85.3218, "ARG_OF_PERICENTER": 148.3949, "MEAN_ANOMALY": 212.0697, "EPHEMERIS_TYPE": 0, "CLASSIFICATION_TYPE": "U", "NORAD_CAT_ID": 31090, "ELEMENT_SET_NO": 999, "REV_AT_EPOCH": 769, "BSTAR": 0.0020232243, "MEAN_MOTION_DOT": 0.0006746, "MEAN_MOTION_DDOT": 0}, "tle": {"line1": "1 31090U 99025BGL 25342.24275498  .00067460  00000+0  20232-2 0  9998", "line2": "2 31090  98.9833  85.3218 0056421 148.3949 212.0697 15.32633337  7693"}}, "geometry": {"type": "Point", "coordinates": [87.91451707512813, -6.858063782717825]}}, {"type": "Feature", "properties": {"norad_id": 31091, "name": "FENGYUN 1C DEB", "group": "fengyun-1c-debris", "lat": 73.99956444969281, "lon": 175.2687059947359, "alt_km": 1172.3925749807386, "timestamp": "2025-12-09T11:33:55.080351+00:00", "meta": {"OBJECT_NAME": "FENGYUN 1C DEB", "OBJECT_ID": "1999-025BGM", "EPOCH": "2025-12-08T19:06:22.628736", "MEAN_MOTION": 13.54139391, "ECCENTRICITY": 0.02908619, "INCLINATION": 99.2242, "RA_OF_ASC_NODE": 320.1096, "ARG_OF_PERICENTER": 339.0045, "MEAN_ANOMALY": 19.9348, "EPHEMERIS_TYPE": 0, "CLASSIFICATION_TYPE": "U", "NORAD_CAT_ID": 31091, "ELEMENT_SET_NO": 999, "REV_AT_EPOCH": 61586, "BSTAR": 0.0015704072, "MEAN_MOTION_DOT": 1.354e-05, "MEAN_MOTION_DDOT": 0}, "tle": {"line1": "1 31091U 99025BGM 25342.79609524  .00001354  00000+0  15704-2 0  9998", "line2": "2 31091  99.2242 320.1096 0290861 339.0045  19.9348 13.54139391615864"}}, "geometry": {"type": "Point", "coordinates": [175.2687059947359, 73.99956444969281]}}, {"type": "Feature", "properties": {"norad_id": 31092, "name": "FENGYUN 1C DEB", "group": "fengyun-1c-debris", "lat": -17.084324310675207, "lon": -83.6175964358805, "alt_km": 935.9655499770461, "timestamp": "2025-12-09T11:33:55.080361+00:00", "meta": {"OBJECT_NAME": "FENGYUN 1C DEB", "OBJECT_ID": "1999-025BGN", "EPOCH": "2025-11-15T07:00:52.552224", "MEAN_MOTION": 13.46401433, "ECCENTRICITY": 0.03278725, "INCLINATION": 99.7115, "RA_OF_ASC_NODE": 75.9227, "ARG_OF_PERICENTER": 204.4209, "MEAN_ANOMALY": 154.1084, "EPHEMERIS_TYPE": 0, "CLASSIFICATION_TYPE": "U", "NORAD_CAT_ID": 31092, "ELEMENT_SET_NO": 999, "REV_AT_EPOCH": 91512, "BSTAR": 0.0042000132, "MEAN_MOTION_DOT": 3.457e-05, "MEAN_MOTION_DDOT": 0}, "tle": {"line1": "1 31092U 99025BGN 25319.29227491  .00003457  00000+0  42000-2 0  9992", "line2": "2 31092  99.7115  75.9227 0327872 204.4209 154.1084 13.46401433915121"}}, "geometry": {"type": "Point", "coordinates": [-83.6175964358805, -17.084324310675207]}}]}